{"type": "FeatureCollection", "features": [ {"type": "Feature", "properties": {"norad_id": 30369, "name": "FENGYUN 1C DEB", "group": "fengyun-1c-debris", "lat": 33.79273152546251, "lon": -21.68148874719879, "alt_km": 917.7721802994065, "timestamp": "2025-12-12T20:43:07.311010+00:00", "meta": {"OBJECT_NAME": "FENGYUN 1C DEB", "OBJECT_ID": "1999-025ACG", "EPOCH": "2025-12-11T12:49:19.064352", "MEAN_MOTION": 14.12056236, "ECCENTRICITY": 0.00991261, "INCLINATION": 98.7212, "RA_OF_ASC_NODE": 342.9221, "ARG_OF_PERICENTER": 198.9357, "MEAN_ANOMALY": 283.5503, "EPHEMERIS_TYPE": 0, "CLASSIFICATION_TYPE": "U", "NORAD_CAT_ID": 30369, "ELEMENT_SET_NO": 999, "REV_AT_EPOCH": 97229, "BSTAR": 0.00031611334, "MEAN_MOTION_DOT": 5.64e-06, "MEAN_MOTION_DDOT": 0}, "tle": {"line1": "1 30369U 99025ACG 25345.53424843  .00000564  00000+0  31611-3 0  9997", "line2": "2 30369  98.7212 342.9221 0099126 198.9357 283.5503 14.12056236972299"}}, "geometry": {"type": "Point", "coordinates": [-21.68148874719879, 33.79273152546251]}}, {"type": "Feature", "properties": {"norad_id": 30370, "name": "FENGYUN 1C DEB", "group": "fengyun-1c-debris", "lat": -36.85374231114898, "lon": 49.68038634036909, "alt_km": 763.3573811398219, "timestamp": "2025-12-12T20:43:07.311021+00:00", "meta": {"OBJECT_NAME": "FENGYUN 1C DEB", "OBJECT_ID": "1999-025ACH", "EPOCH": "2025-12-12T02:25:02.388576", "MEAN_MOTION": 14.19145972, "ECCENTRICITY": 0.00992061, "INCLINATION": 99.0563, "RA_OF_ASC_NODE": 42.0352, "ARG_OF_PERICENTER": 319.1878, "MEAN_ANOMALY": 69.7173, "EPHEMERIS_TYPE": 0, "CLASSIFICATION_TYPE": "U", "NORAD_CAT_ID": 30370, "ELEMENT_SET_NO": 999, "REV_AT_EPOCH": 97085, "BSTAR": 0.0018708057, "MEAN_MOTION_DOT": 4.066e-05, "MEAN_MOTION_DDOT": 0}, "tle": {"line1": "1 30370U 99025ACH 25346.10072209  .00004066  00000+0  18708-2 0  9990", "line2": "2 30370  99.0563  42.0352 0099206 319.1878  69.7173 14.19145972970851"}}, "geometry": {"type": "Point", "coordinates": [49.68038634036909, -36.85374231114898]}}, {"type": "Feature", "properties": {"norad_id": 30371, "name": "FENGYUN 1C DEB", "group": "fengyun-1c-debris", "lat": -15.095115605547129, "lon": 32.19653410170035, "alt_km": 790.7363901311774, "timestamp": "2025-12-12T20:43:07.311031+00:00", "meta": {"OBJECT_NAME": "FENGYUN 1C DEB", "OBJECT_ID": "1999-025ACJ", "EPOCH": "2025-12-12T02:26:50.928576", "MEAN_MOTION": 14.30227248, "ECCENTRICITY": 0.00068838, "INCLINATION": 98.5765, "RA_OF_ASC_NODE": 29.1134, "ARG_OF_PERICENTER": 338.9694, "MEAN_ANOMALY": 48.2972, "EPHEMERIS_TYPE": 0, "CLASSIFICATION_TYPE": "U", "NORAD_CAT_ID": 30371, "ELEMENT_SET_NO": 999, "REV_AT_EPOCH": 97894, "BSTAR": 0.0016519049, "MEAN_MOTION_DOT": 4.24e-05, "MEAN_MOTION_DDOT": 0}, "tle": {"line1": "1 30371U 99025ACJ 25346.10197834  .00004240  00000+0  16519-2 0  9995", "line2": "2 30371  98.5765  29.1134 0006883 338.9694  48.2972 14.30227248978945"}}, "geometry": {"type": "Point", "coordinates": [32.19653410170035, -15.095115605547129]}}, {"type": "Feature", "properties": {"norad_id": 30374, "name": "FENGYUN 1C DEB", "group": "fengyun-1c-debris", "lat": 78.94000083758145, "lon": 153.71068863687884, "alt_km": 678.5507306954905, "timestamp": "2025-12-12T20:43:07.311041+00:00", "meta": {"OBJECT_NAME": "FENGYUN 1C DEB", "OBJECT_ID": "1999-025ACM", "EPOCH": "2025-12-11T21:54:27.597024", "MEAN_MOTION": 14.61261851, "ECCENTRICITY": 0.0039299, "INCLINATION": 99.2729, "RA_OF_ASC_NODE": 209.3497, "ARG_OF_PERICENTER": 170.6935, "MEAN_ANOMALY": 316.6192, "EPHEMERIS_TYPE": 0, "CLASSIFICATION_TYPE": "U", "NORAD_CAT_ID": 30374, "ELEMENT_SET_NO": 999, "REV_AT_EPOCH": 98910, "BSTAR": 0.0027324, "MEAN_MOTION_DOT": 0.00013594, "MEAN_MOTION_DDOT": 0}, "tle": {"line1": "1 30374U 99025ACM 25345.91281941  .00013594  00000+0  27324-2 0  9997", "line2": "2 30374  99.2729 209.3497 0039299 170.6935 316.6192 14.61261851989104"}}, "geometry": {"type": "Point", "coordinates": [153.71068863687884, 78.94000083758145]}}, {"type": "Feature", "properties": {"norad_id": 30377, "name": "FENGYUN 1C DEB", "group": "fengyun-1c-debris", "lat": -33.4631759276653, "lon": -179.58807150192328, "alt_km": 849.7967707715679, "timestamp": "2025-12-12T20:43:07.311051+00:00", "meta": {"OBJECT_NAME": "FENGYUN 1C DEB", "OBJECT_ID": "1999-025ACQ", "EPOCH": "2025-12-12T07:46:26.453856", "MEAN_MOTION": 13.99170642, "ECCENTRICITY": 0.01181284, "INCLINATION": 98.8936, "RA_OF_ASC_NODE": 5.8286, "ARG_OF_PERICENTER": 267.817, "MEAN_ANOMALY": 111.794, "EPHEMERIS_TYPE": 0, "CLASSIFICATION_TYPE": "U", "NORAD_CAT_ID": 30377, "ELEMENT_SET_NO": 999, "REV_AT_EPOCH": 96201, "BSTAR": 0.00046900934, "MEAN_MOTION_DOT": 6.78e-06, "MEAN_MOTION_DDOT": 0}, "tle": {"line1": "1 30377U 99025ACQ 25346.32391729  .00000678  00000+0  46901-3 0  9994", "line2": "2 30377  98.8936   5.8286 0118128 267.8170 111.7940 13.99170642962019"}}, "geometry": {"type": "Point", "coordinates": [-179.58807150192328, -33.4631759276653]}}, {"type": "Feature", "properties": {"norad_id": 30379, "name": "FENGYUN 1C DEB", "group": "fengyun-1c-debris", "lat": -22.72019420904892, "lon": 5.3022781904944045, "alt_km": 857.8161346081415, "timestamp": "2025-12-12T20:43:07.311062+00:00", "meta": {"OBJECT_NAME": "FENGYUN 1C DEB", "OBJECT_ID": "1999-025ACS", "EPOCH": "2025-12-12T07:17:55.308768", "MEAN_MOTION": 14.08034011, "ECCENTRICITY": 0.00355107, "INCLINATION": 98.7584, "RA_OF_ASC_NODE": 1.0587, "ARG_OF_PERICENTER": 280.48, "MEAN_ANOMALY": 103.4864, "EPHEMERIS_TYPE": 0, "CLASSIFICATION_TYPE": "U", "NORAD_CAT_ID": 30379, "ELEMENT_SET_NO": 999, "REV_AT_EPOCH": 96811, "BSTAR": 0.0003663856, "MEAN_MOTION_DOT": 5.84e-06, "MEAN_MOTION_DDOT": 0}, "tle": {"line1": "1 30379U 99025ACS 25346.30411237  .00000584  00000+0  36639-3 0  9994", "line2": "2 30379  98.7584   1.0587 0035510 280.4800 103.4864 14.08034011968115"}}, "geometry": {"type": "Point", "coordinates": [5.3022781904944045, -22.72019420904892]}}, {"type": "Feature", "properties": {"norad_id": 30380, "name": "FENGYUN 1C DEB", "group": "fengyun-1c-debris", "lat": 32.830021941435035, "lon": 28.68117904204892, "alt_km": 847.238609232254, "timestamp": "2025-12-12T20:43:07.311072+00:00", "meta": {"OBJECT_NAME": "FENGYUN 1C DEB", "OBJECT_ID": "1999-025ACT", "EPOCH": "2025-12-12T02:21:04.943232", "MEAN_MOTION": 14.5066536, "ECCENTRICITY": 0.01774706, "INCLINATION": 98.9145, "RA_OF_ASC_NODE": 33.6829, "ARG_OF_PERICENTER": 219.3242, "MEAN_ANOMALY": 139.4953, "EPHEMERIS_TYPE": 0, "CLASSIFICATION_TYPE": "U", "NORAD_CAT_ID": 30380, "ELEMENT_SET_NO": 999, "REV_AT_EPOCH": 99556, "BSTAR": 0.00044943581, "MEAN_MOTION_DOT": 2.102e-05, "MEAN_MOTION_DDOT": 0}, "tle": {"line1": "1 30380U 99025ACT 25346.09797388  .00002102  00000+0  44944-3 0  9992", "line2": "2 30380  98.9145  33.6829 0177470 219.3242 139.4953 14.50665360995566"}}, "geometry": {"type": "Point", "coordinates": [28.68117904204892, 32.830021941435035]}}, {"type": "Feature", "properties": {"norad_id": 30381, "name": "FENGYUN 1C DEB", "group": "fengyun-1c-debris", "lat": -17.979923430682636, "lon": 24.73967502355934, "alt_km": 856.6867170822288, "timestamp": "2025-12-12T20:43:07.311082+00:00", "meta": {"OBJECT_NAME": "FENGYUN 1C DEB", "OBJECT_ID": "1999-025ACU", "EPOCH": "2025-12-10T12:43:11.568000", "MEAN_MOTION": 14.12931, "ECCENTRICITY": 0.0054669, "INCLINATION": 98.8137, "RA_OF_ASC_NODE": 19.557, "ARG_OF_PERICENTER": 82.3976, "MEAN_ANOMALY": 278.3401, "EPHEMERIS_TYPE": 0, "CLASSIFICATION_TYPE": "U", "NORAD_CAT_ID": 30381, "ELEMENT_SET_NO": 999, "REV_AT_EPOCH": 92135, "BSTAR": 0.001434, "MEAN_MOTION_DOT": 2.666e-05, "MEAN_MOTION_DDOT": 0}, "tle": {"line1": "1 30381U 99025ACU 25344.52999500  .00002666  00000+0  14340-2 0  9990", "line2": "2 30381  98.8137  19.5570 0054669  82.3976 278.3401 14.12931000921351"}}, "geometry": {"type": "Point", "coordinates": [24.73967502355934, -17.979923430682636]}}, {"type": "Feature", "properties": {"norad_id": 30382, "name": "FENGYUN 1C DEB", "group": "fengyun-1c-debris", "lat": -27.4286005956633, "lon": 29.68462828223176, "alt_km": 711.6339214134359, "timestamp": "2025-12-12T20:43:07.311092+00:00", "meta": {"OBJECT_NAME": "FENGYUN 1C DEB", "OBJECT_ID": "1999-025ACV", "EPOCH": "2025-12-12T02:25:33.418272", "MEAN_MOTION": 14.25283936, "ECCENTRICITY": 0.0154759, "INCLINATION": 98.4993, "RA_OF_ASC_NODE": 24.4949, "ARG_OF_PERICENTER": 358.9325, "MEAN_ANOMALY": 25.5097, "EPHEMERIS_TYPE": 0, "CLASSIFICATION_TYPE": "U", "NORAD_CAT_ID": 30382, "ELEMENT_SET_NO": 999, "REV_AT_EPOCH": 97526, "BSTAR": 0.0012941057, "MEAN_MOTION_DOT": 3.409e-05, "MEAN_MOTION_DDOT": 0}, "tle": {"line1": "1 30382U 99025ACV 25346.10108123  .00003409  00000+0  12941-2 0  9991", "line2": "2 30382  98.4993  24.4949 0154759 358.9325  25.5097 14.25283936975268"}}, "geometry": {"type": "Point", "coordinates": [29.68462828223176, -27.4286005956633]}}, {"type": "Feature", "properties": {"norad_id": 30385, "name": "FENGYUN 1C DEB", "group": "fengyun-1c-debris", "lat": -64.51565599048604, "lon": 27.182324138912957, "alt_km": 680.9212514340807, "timestamp": "2025-12-12T20:43:07.311102+00:00", "meta": {"OBJECT_NAME": "FENGYUN 1C DEB", "OBJECT_ID": "1999-025ACY", "EPOCH": "2025-12-12T07:45:58.400640", "MEAN_MOTION": 14.38785858, "ECCENTRICITY": 0.01247007, "INCLINATION": 99.0821, "RA_OF_ASC_NODE": 7.0027, "ARG_OF_PERICENTER": 290.8001, "MEAN_ANOMALY": 89.2545, "EPHEMERIS_TYPE": 0, "CLASSIFICATION_TYPE": "U", "NORAD_CAT_ID": 30385, "ELEMENT_SET_NO": 999, "REV_AT_EPOCH": 98763, "BSTAR": 0.00046265069, "MEAN_MOTION_DOT": 1.502e-05, "MEAN_MOTION_DDOT": 0}, "tle": {"line1": "1 30385U 99025ACY 25346.32359260  .00001502  00000+0  46265-3 0  9997", "line2": "2 30385  99.0821   7.0027 0124700 290.8001  89.2545 14.38785858987633"}}, "geometry": {"type": "Point", "coordinates": [27.182324138912957, -64.51565599048604]}}]}